start=new Date('2022-12-09T00:00:00.000Z').valueOf();
sats=[{"LAUNCH_DATE":"2021-04-29","EPHEMERIS_TYPE":"0","NORAD_CAT_ID":"48302","OBJECT_TYPE":"PAYLOAD","MEAN_ANOMALY":"291.6159","PERIAPSIS":"545.613","EPOCH":"2022-12-08T09:05:14.939232","COUNTRY_CODE":"US","SEMIMAJOR_AXIS":"6925.283","INCLINATION":"53.0575","MEAN_ELEMENT_THEORY":"SGP4","RA_OF_ASC_NODE":"21.6642","PERIOD":"95.591","CENTER_NAME":"EARTH","GP_ID":"219780561","MEAN_MOTION_DOT":"0.00000640","REF_FRAME":"TEME","OBJECT_ID":"2021-036AC","MEAN_MOTION_DDOT":"0.0000000000000","SITE":"AFETR","FILE":"3684674","ELEMENT_SET_NO":"999","ECCENTRICITY":"0.00022160","OBJECT_NAME":"STARLINK-2556","REV_AT_EPOCH":"8979","DECAY_DATE":null,"CLASSIFICATION_TYPE":"U","MEAN_MOTION":"15.06421510","TLE_LINE1":"1 48302U 21036AC  22342.37864513  .00000640  00000-0  61876-4 0  9991","BSTAR":"0.00006187600000","RCS_SIZE":"LARGE","TLE_LINE2":"2 48302  53.0575  21.6642 0002216  68.5066 291.6159 15.06421510 89798","APOAPSIS":"548.682","ARG_OF_PERICENTER":"68.5066","TIME_SYSTEM":"UTC"},{"REF_FRAME":"TEME","MEAN_MOTION_DOT":"0.00000822","GP_ID":"219774927","CENTER_NAME":"EARTH","MEAN_ELEMENT_THEORY":"SGP4","PERIOD":"95.592","RA_OF_ASC_NODE":"21.0910","COUNTRY_CODE":"US","SEMIMAJOR_AXIS":"6925.348","INCLINATION":"53.0552","PERIAPSIS":"546.048","MEAN_ANOMALY":"303.3597","EPOCH":"2022-12-08T12:09:40.815360","OBJECT_TYPE":"PAYLOAD","NORAD_CAT_ID":"48303","LAUNCH_DATE":"2021-04-29","EPHEMERIS_TYPE":"0","TIME_SYSTEM":"UTC","APOAPSIS":"548.379","ARG_OF_PERICENTER":"56.7553","TLE_LINE2":"2 48303  53.0552  21.0910 0001683  56.7553 303.3597 15.06400149 89234","RCS_SIZE":"LARGE","BSTAR":"0.00007406000000","TLE_LINE1":"1 48303U 21036AD  22342.50672240  .00000822  00000-0  74060-4 0  9992","DECAY_DATE":null,"MEAN_MOTION":"15.06400149","CLASSIFICATION_TYPE":"U","REV_AT_EPOCH":"8923","OBJECT_NAME":"STARLINK-2530","ELEMENT_SET_NO":"999","ECCENTRICITY":"0.00016830","FILE":"3684614","SITE":"AFETR","MEAN_MOTION_DDOT":"0.0000000000000","OBJECT_ID":"2021-036AD"},{"OBJECT_TYPE":"PAYLOAD","NORAD_CAT_ID":"48304","LAUNCH_DATE":"2021-04-29","EPHEMERIS_TYPE":"0","PERIAPSIS":"545.979","MEAN_ANOMALY":"302.6983","EPOCH":"2022-12-08T16:52:20.500320","MEAN_ELEMENT_THEORY":"SGP4","PERIOD":"95.592","RA_OF_ASC_NODE":"20.2071","COUNTRY_CODE":"US","SEMIMAJOR_AXIS":"6925.329","INCLINATION":"53.0555","CENTER_NAME":"EARTH","GP_ID":"219781087","MEAN_MOTION_DOT":"0.00003113","REF_FRAME":"TEME","MEAN_MOTION_DDOT":"0.0000000000000","OBJECT_ID":"2021-036AE","SITE":"AFETR","FILE":"3684695","OBJECT_NAME":"STARLINK-2524","ELEMENT_SET_NO":"999","ECCENTRICITY":"0.00017550","DECAY_DATE":null,"CLASSIFICATION_TYPE":"U","MEAN_MOTION":"15.06406243","REV_AT_EPOCH":"8985","TLE_LINE1":"1 48304U 21036AE  22342.70301505  .00003113  00000-0  22779-3 0  9993","RCS_SIZE":"LARGE","TLE_LINE2":"2 48304  53.0555  20.2071 0001755  57.4175 302.6983 15.06406243 89855","BSTAR":"0.00022779000000","TIME_SYSTEM":"UTC","APOAPSIS":"548.410","ARG_OF_PERICENTER":"57.4175"},{"TIME_SYSTEM":"UTC","ARG_OF_PERICENTER":"57.1254","APOAPSIS":"548.307","TLE_LINE2":"2 48305  53.0540  19.6294 0001609  57.1254 302.9889 15.06406961 89284","RCS_SIZE":"LARGE","BSTAR":"0.00046801000000","TLE_LINE1":"1 48305U 21036AF  22342.83107652  .00006698  00000-0  46801-3 0  9998","DECAY_DATE":null,"CLASSIFICATION_TYPE":"U","MEAN_MOTION":"15.06406961","REV_AT_EPOCH":"8928","OBJECT_NAME":"STARLINK-2519","ECCENTRICITY":"0.00016090","ELEMENT_SET_NO":"999","FILE":"3684925","SITE":"AFETR","MEAN_MOTION_DDOT":"0.0000000000000","OBJECT_ID":"2021-036AF","REF_FRAME":"TEME","MEAN_MOTION_DOT":"0.00006698","GP_ID":"219808119","CENTER_NAME":"EARTH","RA_OF_ASC_NODE":"19.6294","PERIOD":"95.592","MEAN_ELEMENT_THEORY":"SGP4","INCLINATION":"53.0540","COUNTRY_CODE":"US","SEMIMAJOR_AXIS":"6925.327","PERIAPSIS":"546.078","EPOCH":"2022-12-08T19:56:45.011328","MEAN_ANOMALY":"302.9889","OBJECT_TYPE":"PAYLOAD","NORAD_CAT_ID":"48305","EPHEMERIS_TYPE":"0","LAUNCH_DATE":"2021-04-29"},{"FILE":"3684925","ECCENTRICITY":"0.00016350","ELEMENT_SET_NO":"999","OBJECT_NAME":"STARLINK-2523","OBJECT_ID":"2021-036AG","MEAN_MOTION_DDOT":"0.0000000000000","SITE":"AFETR","BSTAR":"0.00021751000000","RCS_SIZE":"LARGE","TLE_LINE2":"2 48306  53.0575  19.6529 0001635  53.6928 306.4211 15.06405235 89283","ARG_OF_PERICENTER":"53.6928","APOAPSIS":"548.330","TIME_SYSTEM":"UTC","REV_AT_EPOCH":"8928","MEAN_MOTION":"15.06405235","DECAY_DATE":null,"CLASSIFICATION_TYPE":"U","TLE_LINE1":"1 48306U 21036AG  22342.82833036  .00002960  00000-0  21751-3 0  9995","INCLINATION":"53.0575","COUNTRY_CODE":"US","SEMIMAJOR_AXIS":"6925.333","PERIOD":"95.592","RA_OF_ASC_NODE":"19.6529","MEAN_ELEMENT_THEORY":"SGP4","CENTER_NAME":"EARTH","EPHEMERIS_TYPE":"0","LAUNCH_DATE":"2021-04-29","OBJECT_TYPE":"PAYLOAD","NORAD_CAT_ID":"48306","PERIAPSIS":"546.065","MEAN_ANOMALY":"306.4211","EPOCH":"2022-12-08T19:52:47.743104","MEAN_MOTION_DOT":"0.00002960","REF_FRAME":"TEME","GP_ID":"219806867"},{"TLE_LINE1":"1 48307U 21036AH  22342.42657645  .00000422  00000-0  47246-4 0  9991","REV_AT_EPOCH":"8922","MEAN_MOTION":"15.06398977","DECAY_DATE":null,"CLASSIFICATION_TYPE":"U","APOAPSIS":"548.338","ARG_OF_PERICENTER":"63.3930","TIME_SYSTEM":"UTC","BSTAR":"0.00004724600000","RCS_SIZE":"LARGE","TLE_LINE2":"2 48307  53.0576  21.4601 0001619  63.3930 296.7225 15.06398977 89224","SITE":"AFETR","OBJECT_ID":"2021-036AH","MEAN_MOTION_DDOT":"0.0000000000000","ELEMENT_SET_NO":"999","ECCENTRICITY":"0.00016190","OBJECT_NAME":"STARLINK-2528","FILE":"3684925","GP_ID":"219807618","REF_FRAME":"TEME","MEAN_MOTION_DOT":"0.00000422","MEAN_ANOMALY":"296.7225","PERIAPSIS":"546.095","EPOCH":"2022-12-08T10:14:16.205280","LAUNCH_DATE":"2021-04-29","EPHEMERIS_TYPE":"0","OBJECT_TYPE":"PAYLOAD","NORAD_CAT_ID":"48307","CENTER_NAME":"EARTH","COUNTRY_CODE":"US","SEMIMAJOR_AXIS":"6925.352","INCLINATION":"53.0576","MEAN_ELEMENT_THEORY":"SGP4","PERIOD":"95.592","RA_OF_ASC_NODE":"21.4601"},{"NORAD_CAT_ID":"48308","OBJECT_TYPE":"PAYLOAD","EPHEMERIS_TYPE":"0","LAUNCH_DATE":"2021-04-29","PERIAPSIS":"545.856","EPOCH":"2022-12-08T11:44:29.599008","MEAN_ANOMALY":"314.4989","RA_OF_ASC_NODE":"21.1712","PERIOD":"95.592","MEAN_ELEMENT_THEORY":"SGP4","INCLINATION":"53.0569","COUNTRY_CODE":"US","SEMIMAJOR_AXIS":"6925.347","CENTER_NAME":"EARTH","GP_ID":"219783194","MEAN_MOTION_DOT":"0.00002381","REF_FRAME":"TEME","MEAN_MOTION_DDOT":"0.0000000000000","OBJECT_ID":"2021-036AJ","SITE":"AFETR","FILE":"3684790","OBJECT_NAME":"STARLINK-2532","ECCENTRICITY":"0.00019570","ELEMENT_SET_NO":"999","DECAY_DATE":null,"CLASSIFICATION_TYPE":"U","MEAN_MOTION":"15.06400648","REV_AT_EPOCH":"8982","TLE_LINE1":"1 48308U 21036AJ  22342.48923147  .00002381  00000-0  17871-3 0  9997","RCS_SIZE":"LARGE","TLE_LINE2":"2 48308  53.0569  21.1712 0001957  45.6160 314.4989 15.06400648 89820","BSTAR":"0.00017871000000","TIME_SYSTEM":"UTC","ARG_OF_PERICENTER":"45.6160","APOAPSIS":"548.567"},{"COUNTRY_CODE":"US","SEMIMAJOR_AXIS":"6925.341","INCLINATION":"53.0563","MEAN_ELEMENT_THEORY":"SGP4","PERIOD":"95.592","RA_OF_ASC_NODE":"21.1940","CENTER_NAME":"EARTH","LAUNCH_DATE":"2021-04-29","EPHEMERIS_TYPE":"0","NORAD_CAT_ID":"48309","OBJECT_TYPE":"PAYLOAD","PERIAPSIS":"546.279","EPOCH":"2022-12-08T11:39:11.173536","MEAN_ANOMALY":"294.1381","MEAN_MOTION_DOT":"0.00000676","REF_FRAME":"TEME","GP_ID":"219774434","FILE":"3684614","ELEMENT_SET_NO":"999","ECCENTRICITY":"0.00013390","OBJECT_NAME":"STARLINK-2517","OBJECT_ID":"2021-036AK","MEAN_MOTION_DDOT":"0.0000000000000","SITE":"AFETR","BSTAR":"0.00006428000000","RCS_SIZE":"LARGE","TLE_LINE2":"2 48309  53.0563  21.1940 0001339  65.9748 294.1381 15.06402457 89234","APOAPSIS":"548.133","ARG_OF_PERICENTER":"65.9748","TIME_SYSTEM":"UTC","REV_AT_EPOCH":"8923","DECAY_DATE":null,"MEAN_MOTION":"15.06402457","CLASSIFICATION_TYPE":"U","TLE_LINE1":"1 48309U 21036AK  22342.48554599  .00000676  00000-0  64280-4 0  9991"},{"GP_ID":"219774685","REF_FRAME":"TEME","MEAN_MOTION_DOT":"0.00006423","MEAN_ANOMALY":"323.3189","PERIAPSIS":"545.832","EPOCH":"2022-12-08T13:09:25.562592","OBJECT_TYPE":"PAYLOAD","NORAD_CAT_ID":"48310","EPHEMERIS_TYPE":"0","LAUNCH_DATE":"2021-04-29","CENTER_NAME":"EARTH","RA_OF_ASC_NODE":"20.9168","PERIOD":"95.592","MEAN_ELEMENT_THEORY":"SGP4","INCLINATION":"53.0554","SEMIMAJOR_AXIS":"6925.334","COUNTRY_CODE":"US","TLE_LINE1":"1 48310U 21036AL  22342.54821253  .00006423  00000-0  44966-3 0  9998","CLASSIFICATION_TYPE":"U","DECAY_DATE":null,"MEAN_MOTION":"15.06404871","REV_AT_EPOCH":"8924","TIME_SYSTEM":"UTC","ARG_OF_PERICENTER":"36.7935","APOAPSIS":"548.565","RCS_SIZE":"LARGE","TLE_LINE2":"2 48310  53.0554  20.9168 0001973  36.7935 323.3189 15.06404871 89247","BSTAR":"0.00044966000000","SITE":"AFETR","MEAN_MOTION_DDOT":"0.0000000000000","OBJECT_ID":"2021-036AL","OBJECT_NAME":"STARLINK-2536","ECCENTRICITY":"0.00019730","ELEMENT_SET_NO":"999","FILE":"3684614"},{"ARG_OF_PERICENTER":"62.2082","APOAPSIS":"548.370","TIME_SYSTEM":"UTC","BSTAR":"0.00017136000000","TLE_LINE2":"2 48311  53.0559  21.2169 0001689  62.2082 297.9078 15.06404251 89233","RCS_SIZE":"LARGE","TLE_LINE1":"1 48311U 21036AM  22342.47817582  .00002272  00000-0  17136-3 0  9998","REV_AT_EPOCH":"8923","DECAY_DATE":null,"MEAN_MOTION":"15.06404251","CLASSIFICATION_TYPE":"U","ECCENTRICITY":"0.00016890","ELEMENT_SET_NO":"999","OBJECT_NAME":"STARLINK-2534","FILE":"3684614","SITE":"AFETR","OBJECT_ID":"2021-036AM","MEAN_MOTION_DDOT":"0.0000000000000","REF_FRAME":"TEME","MEAN_MOTION_DOT":"0.00002272","GP_ID":"219774928","CENTER_NAME":"EARTH","INCLINATION":"53.0559","SEMIMAJOR_AXIS":"6925.336","COUNTRY_CODE":"US","RA_OF_ASC_NODE":"21.2169","PERIOD":"95.592","MEAN_ELEMENT_THEORY":"SGP4","PERIAPSIS":"546.031","MEAN_ANOMALY":"297.9078","EPOCH":"2022-12-08T11:28:34.390848","EPHEMERIS_TYPE":"0","LAUNCH_DATE":"2021-04-29","OBJECT_TYPE":"PAYLOAD","NORAD_CAT_ID":"48311"}];
